COMMENT,ORIGINATOR,NORAD_CAT_ID,OBJECT_NAME,OBJECT_TYPE,CLASSIFICATION_TYPE,INTLDES,EPOCH,EPOCH_MICROSECONDS,MEAN_MOTION,ECCENTRICITY,INCLINATION,RA_OF_ASC_NODE,ARG_OF_PERICENTER,MEAN_ANOMALY,EPHEMERIS_TYPE,ELEMENT_SET_NO,REV_AT_EPOCH,BSTAR,MEAN_MOTION_DOT,MEAN_MOTION_DDOT,FILE,TLE_LINE0,TLE_LINE1,TLE_LINE2,OBJECT_ID,OBJECT_NUMBER,SEMIMAJOR_AXIS,PERIOD,APOGEE,PERIGEE
"GENERATED VIA SPACETRACK.ORG API","JSPOC","22097","DELTA 2 R/B(1)","ROCKET BODY","U","92057B","2016-01-13 00:18:21","980160","10.92070342","0.050656","25.1933","253.4385","82.7447","44.4814","0","999","93332","0.00083868","8.5e-07","0","1979722","0 DELTA 2 R/B(1)","1 22097U 92057B   16013.01275440  .00000085  00000-0  83868-3 0  9996","2 22097  25.1933 253.4385 0506560  82.7447  44.4814 10.92070342933322","1992-057B","22097","8581.596","131.859","2638.171","1768.752"
"GENERATED VIA SPACETRACK.ORG API","JSPOC","39122","EUTE 117 WEST A(SATMEX 8","PAYLOAD","U","13012A","2016-01-13 00:19:24","491424","1.00272701","0.0002771","0.0176","296.4522","357.382","66.1265","0","999","1028","0","-1.5e-07","0","1979762","0 EUTE 117 WEST A(SATMEX 8","1 39122U 13012A   16013.01347791 -.00000015  00000-0  00000+0 0  9993","2 39122   0.0176 296.4522 0002771 357.3820  66.1265  1.00272701 10285","2013-012A","39122","42164.475","1436.083","35798.023","35774.656"
"GENERATED VIA SPACETRACK.ORG API","JSPOC","39122","EUTE 117 WEST A(SATMEX 8","PAYLOAD","U","13012A","2016-01-13 00:19:24","424032","1.00272812","0.0002733","0.0176","297.0272","357.4875","65.4465","0","999","1027","0","-1.5e-07","0","1980270","0 EUTE 117 WEST A(SATMEX 8","1 39122U 13012A   16013.01347713 -.00000015 +00000-0 +00000-0 0  9998","2 39122 000.0176 297.0272 0002733 357.4875 065.4465 01.00272812010279","2013-012A","39122","42164.444","1436.082","35797.832","35774.785"
"GENERATED VIA SPACETRACK.ORG API","JSPOC","29668","MERIDIAN 1","PAYLOAD","U","06061A","2016-01-13 00:19:52","355424","2.00612934","0.6848027","65.2723","153.2294","248.6908","85.7333","0","999","6631","0","1.97e-06","0","1979759","0 MERIDIAN 1","1 29668U 06061A   16013.01380041  .00000197  00000-0  00000+0 0  9998","2 29668  65.2723 153.2294 6848027 248.6908  85.7333  2.00612934 66318","2006-061A","29668","26555.993","717.800","38363.474","1992.242"
"GENERATED VIA SPACETRACK.ORG API","JSPOC","41188","ORBCOMM FM 117","PAYLOAD","U","15081K","2016-01-13 00:20:31","821216","14.80755867","0.0021086","46.9952","255.639","125.8219","234.2347","0","999","325","0.018814","0.00150212","0","1979806","0 ORBCOMM FM 117","1 41188U 15081K   16013.01425719  .00150212  00000-0  18814-1 0  9991","2 41188  46.9952 255.6390 0021086 125.8219 234.2347 14.80755867  3250","2015-081K","41188","7005.076","97.247","641.712","612.170"
"GENERATED VIA SPACETRACK.ORG API","JSPOC","37776","BSAT-3C","PAYLOAD","U","11041B","2016-01-13 00:22:53","373792","1.0027045","5.03e-05","0.0154","352.2774","10.8863","224.4431","0","999","1635","0","-3.52e-06","0","1979722","0 BSAT-3C","1 37776U 11041B   16013.01589553 -.00000352  00000-0  00000+0 0  9994","2 37776   0.0154 352.2774 0000503  10.8863 224.4431  1.00270450 16350","2011-041B","37776","42165.106","1436.116","35789.092","35784.850"
"GENERATED VIA SPACETRACK.ORG API","JSPOC","37207","BSAT-3B","PAYLOAD","U","10056B","2016-01-13 00:22:53","373792","1.00271841","0.0005286","0.0753","309.2153","359.9844","278.2977","0","999","1909","0","-3.52e-06","0","1979731","0 BSAT-3B","1 37207U 10056B   16013.01589553 -.00000352  00000-0  00000+0 0  9998","2 37207   0.0753 309.2153 0005286 359.9844 278.2977  1.00271841 19097","2010-056B","37207","42164.716","1436.096","35808.869","35764.292"
"GENERATED VIA SPACETRACK.ORG API","JSPOC","38354","YAOGAN 15","PAYLOAD","U","12029A","2016-01-13 00:23:31","54560","13.15687931","0.0007488","100.6719","138.559","148.3862","211.7696","0","999","17401","1.8714e-05","-3.9e-07","0","1979717","0 YAOGAN 15","1 38354U 12029A   16013.01633165 -.00000039  00000-0  18714-4 0  9991","2 38354 100.6719 138.5590 0007488 148.3862 211.7696 13.15687931174018","2012-029A","38354","7579.372","109.448","1206.912","1195.561"
"GENERATED VIA SPACETRACK.ORG API","JSPOC","36519","COSMOS 2463","PAYLOAD","U","10017A","2016-01-13 00:23:42","563040","13.71391868","0.0034891","82.9589","166.8986","253.916","105.8147","0","999","28603","-0.00013518","-1.07e-06","0","1979783","0 COSMOS 2463","1 36519U 10017A   16013.01646485 -.00000107  00000-0 -13518-3 0  9999","2 36519  82.9589 166.8986 0034891 253.9160 105.8147 13.71391868286034","2010-017A","36519","7372.715","105.002","1020.304","968.856"
"GENERATED VIA SPACETRACK.ORG API","JSPOC","14158","GALAXY 1","PAYLOAD","U","83065A","2016-01-13 00:23:49","322976","1.00100998","0.0004911","14.983","16.0045","220.3501","323.5367","0","999","9261","0","-1.37e-06","0","1979751","0 GALAXY 1","1 14158U 83065A   16013.01654309 -.00000137  00000-0  00000+0 0  9991","2 14158  14.9830  16.0045 0004911 220.3501 323.5367  1.00100998 92615","1983-065A","14158","42212.677","1438.547","35855.273","35813.812"
"GENERATED VIA SPACETRACK.ORG API","JSPOC","21111","COSMOS 2133","PAYLOAD","U","91010A","2016-01-13 00:23:49","322976","1.00270117","0.0003242","14.541","15.9534","129.7848","52.6618","0","999","9125","0","-1.61e-06","0","1980270","0 COSMOS 2133","1 21111U 91010A   16013.01654309 -.00000161 +00000-0 +00000-0 0  9995","2 21111 014.5410 015.9534 0003242 129.7848 052.6618 01.00270117091254","1991-010A","21111","42165.199","1436.120","35800.734","35773.394"
"GENERATED VIA SPACETRACK.ORG API","JSPOC","18350","OPTUS A3 (AUSSAT 3)","PAYLOAD","U","87078A","2016-01-13 00:24:03","418272","0.98904222","0.0007672","14.2958","23.6031","258.8031","290.2142","0","999","10285","0","-5.6e-07","0","1979705","0 OPTUS A3 (AUSSAT 3)","1 18350U 87078A   16013.01670623 -.00000056  00000-0  00000+0 0  9994","2 18350  14.2958  23.6031 0007672 258.8031 290.2142  0.98904222102854","1987-078A","18350","42552.520","1455.954","36207.031","36141.738"
"GENERATED VIA SPACETRACK.ORG API","JSPOC","39239","YAOGAN 17A","PAYLOAD","U","13046A","2016-01-13 00:24:43","581312","13.45147002","0.0085228","63.4106","163.005","3.3812","356.7776","0","999","11610","0","-9e-07","0","1979713","0 YAOGAN 17A","1 39239U 13046A   16013.01717108 -.00000090  00000-0  00000+0 0  9995","2 39239  63.4106 163.0050 0085228   3.3812 356.7776 13.45147002116102","2013-046A","39239","7468.304","107.051","1153.820","1026.518"
"GENERATED VIA SPACETRACK.ORG API","JSPOC","39241","YAOGAN 17C","PAYLOAD","U","13046C","2016-01-13 00:24:45","158112","13.45146473","0.0085886","63.4114","162.1535","3.1065","357.0481","0","999","11612","0","-9e-07","0","1979713","0 YAOGAN 17C","1 39241U 13046C   16013.01718933 -.00000090  00000-0  00000+0 0  9995","2 39241  63.4114 162.1535 0085886   3.1065 357.0481 13.45146473116120","2013-046C","39241","7468.306","107.051","1154.313","1026.029"
"GENERATED VIA SPACETRACK.ORG API","JSPOC","39761","COSMOS 2496","PAYLOAD","U","14028A","2016-01-13 00:24:56","124000","12.42890726","0.0020688","82.4472","334.1202","91.6117","268.7333","0","999","7450","0","1e-07","0","1979747","0 COSMOS 2496","1 39761U 14028A   16013.01731625  .00000010  00000-0  00000+0 0  9997","2 39761  82.4472 334.1202 0020688  91.6117 268.7333 12.42890726 74508","2014-028A","39761","7872.509","115.858","1510.661","1478.088"
"GENERATED VIA SPACETRACK.ORG API","JSPOC","39240","YAOGAN 17B","PAYLOAD","U","13046B","2016-01-13 00:25:02","108928","13.45145644","0.0085081","63.4109","163.0484","3.315","356.8426","0","999","11610","0","-9e-07","0","1979713","0 YAOGAN 17B","1 39240U 13046B   16013.01738552 -.00000090  00000-0  00000+0 0  9993","2 39240  63.4109 163.0484 0085081   3.3150 356.8426 13.45145644116103","2013-046B","39240","7468.309","107.051","1153.715","1026.633"
"GENERATED VIA SPACETRACK.ORG API","JSPOC","15996","OPTUS A1 R/B(PAM-D)","ROCKET BODY","U","85076E","2016-01-13 00:26:05","510112","2.35880918","0.7171101","25.7591","202.2881","46.5706","354.2094","0","999","20465","0.0007138","4.55e-06","0","1979846","0 OPTUS A1 R/B(PAM-D)","1 15996U 85076E   16013.01811933  .00000455  00000-0  71380-3 0  9999","2 15996  25.7591 202.2881 7171101  46.5706 354.2094  2.35880918204658","1985-076E","15996","23838.191","610.477","34554.664","365.448"
"GENERATED VIA SPACETRACK.ORG API","JSPOC","39059","COSMOS 2484","PAYLOAD","U","13001C","2016-01-13 00:26:14","376480","12.42872633","0.0025763","82.5022","69.6159","63.464","296.9078","0","999","13568","0","1e-07","0","1979763","0 COSMOS 2484","1 39059U 13001C   16013.01822195  .00000010  00000-0  00000+0 0  9990","2 39059  82.5022  69.6159 0025763  63.4640 296.9078 12.42872633135681","2013-001C","39059","7872.586","115.860","1514.733","1474.169"
"GENERATED VIA SPACETRACK.ORG API","JSPOC","27058","GONETS D1 7","PAYLOAD","U","01058D","2016-01-13 00:26:44","142144","12.62012864","0.0003162","82.5362","124.8344","1.8067","358.3032","0","999","64692","8.6615e-06","1.2e-07","0","1979691","0 GONETS D1 7","1 27058U 01058D   16013.01856646  .00000012  00000-0  86615-5 0  9997","2 27058  82.5362 124.8344 0003162   1.8067 358.3032 12.62012864646923","2001-058D","27058","7792.784","114.103","1417.113","1412.185"
"GENERATED VIA SPACETRACK.ORG API","JSPOC","20706","DFS 2","PAYLOAD","U","90063B","2016-01-13 00:26:58","640064","0.99543466","0.0006154","12.3858","35.5495","214.5581","321.2626","0","999","8500","0","-1.16e-06","0","1979705","0 DFS 2","1 20706U 90063B   16013.01873426 -.00000116  00000-0  00000+0 0  9993","2 20706  12.3858  35.5495 0006154 214.5581 321.2626  0.99543466 85008","1990-063B","20706","42370.150","1446.604","36018.089","35965.940"
